NORAD_CAT_ID,OBJECT_NAME,OBJECT_TYPE,EPOCH,MEAN_MOTION,ECCENTRICITY,INCLINATION,RA_OF_ASC_NODE,ARG_OF_PERICENTER,MEAN_ANOMALY,BSTAR,MEAN_MOTION_DOT,MEAN_MOTION_DDOT,TLE_LINE0,TLE_LINE1,TLE_LINE2,SEMIMAJOR_AXIS,PERIOD,APOGEE,PERIGEE,DECAYED
51879.0,STARLINK-3572,PAYLOAD,2022-12-03 06:15:42,15.08841361,0.0002479,53.2183,312.145,37.5256,322.5909,-1.8469e-05,-5.82e-06,0.0,0 STARLINK-3572,1 51879U 22022AD  22337.26090839 -.00000582  00000-0 -18469-4 0  9991,2 51879  53.2183 312.1450 0002479  37.5256 322.5909 15.08841361 43239,6917.876,95.437,541.456,538.026,0.0
51879.0,STARLINK-3572,PAYLOAD,2022-12-03 15:48:01,15.08837479,0.0002449,53.2183,310.3594,36.2283,323.8875,6.0724e-05,6.78e-06,0.0,0 STARLINK-3572,1 51879U 22022AD  22337.65834838  .00000678  00000-0  60724-4 0  9994,2 51879  53.2183 310.3594 0002449  36.2283 323.8875 15.08837479 43298,6917.888000000001,95.438,541.447,538.059,0.0
51879.0,STARLINK-3572,PAYLOAD,2022-12-04 07:41:52,15.08838199,0.0002444,53.2183,307.3852,37.4656,322.6506,9.1048e-05,1.161e-05,0.0,0 STARLINK-3572,1 51879U 22022AD  22338.32074804  .00001161  00000-0  91048-4 0  9999,2 51879  53.2183 307.3852 0002444  37.4656 322.6506 15.08838199 43392,6917.886,95.438,541.442,538.06,0.0
51879.0,STARLINK-3572,PAYLOAD,2022-12-04 15:38:47,15.08848473,0.0002494,53.2185,305.8997,36.6477,323.4685,9.5786e-05,1.237e-05,0.0,0 STARLINK-3572,1 51879U 22022AD  22338.65194081  .00001237  00000-0  95786-4 0  9992,2 51879  53.2185 305.8997 0002494  36.6477 323.4685 15.08848473 43443,6917.854,95.437,541.445,537.994,0.0
51879.0,STARLINK-3572,PAYLOAD,2022-12-05 07:32:38,15.08847747,0.0002467,53.2187,302.9273,39.7257,320.3915,0.00013537,1.867e-05,0.0,0 STARLINK-3572,1 51879U 22022AD  22339.31433900  .00001867  00000-0  13537-3 0  9994,2 51879  53.2187 302.9273 0002467  39.7257 320.3915 15.08847747 43546,6917.857,95.437,541.428,538.015,0.0
51879.0,STARLINK-3572,PAYLOAD,2022-12-06 04:12:39,15.08845474,0.0002466,53.2191,299.0596,38.3635,321.7532,0.00011745,1.582e-05,0.0,0 STARLINK-3572,1 51879U 22022AD  22340.17545796  .00001582  00000-0  11745-3 0  9990,2 51879  53.2191 299.0596 0002466  38.3635 321.7532 15.08845474 43678,6917.864000000001,95.437,541.435,538.023,0.0
51879.0,STARLINK-3572,PAYLOAD,2022-12-06 07:23:25,15.08847253,0.0002467,53.2196,298.4656,37.5105,322.6059,6.9219e-05,8.14e-06,0.0,0 STARLINK-3572,1 51879U 22022AD  22340.30793787  .00000814  00000-0  69219-4 0  9997,2 51879  53.2196 298.4656 0002467  37.5105 322.6059 15.08847253 43690,6917.858,95.437,541.43,538.0169999999998,0.0
51879.0,STARLINK-3572,PAYLOAD,2022-12-06 21:41:55,15.08832118,0.0002454,53.2175,295.7881,37.6437,322.4727,-5.2688e-05,-1.127e-05,0.0,0 STARLINK-3572,1 51879U 22022AD  22340.90411093 -.00001127  00000-0 -52688-4 0  9992,2 51879  53.2175 295.7881 0002454  37.6437 322.4727 15.08832118 43786,6917.904,95.438,541.467,538.072,0.0
51879.0,STARLINK-3572,PAYLOAD,2022-12-07 13:35:47,15.08823874,0.0002563999999999,53.2183,292.8154,32.0525,328.0623,5.8801e-06,-1.95e-06,0.0,0 STARLINK-3572,1 51879U 22022AD  22341.56651934 -.00000195  00000-0  58801-5 0  9992,2 51879  53.2183 292.8154 0002564  32.0525 328.0623 15.08823874 43882,6917.93,95.439,541.568,538.021,0.0
51879.0,STARLINK-3572,PAYLOAD,2022-12-07 23:08:05,15.08833557,0.0002562,53.2174,291.0317,27.7197,332.3931,-6.4071e-05,-1.308e-05,0.0,0 STARLINK-3572,1 51879U 22022AD  22341.96395680 -.00001308  00000-0 -64071-4 0  9992,2 51879  53.2174 291.0317 0002562  27.7197 332.3931 15.08833557 43944,6917.9,95.438,541.5369999999998,537.993,0.0
51879.0,STARLINK-3572,PAYLOAD,2022-12-08 05:29:38,15.08839413,0.0002767,53.218,289.845,32.3228,327.7933,8.469600000000001e-06,-1.54e-06,0.0,0 STARLINK-3572,1 51879U 22022AD  22342.22891272 -.00000154  00000-0  84696-5 0  9993,2 51879  53.2180 289.8450 0002767  32.3228 327.7933 15.08839413 43989,6917.882,95.438,541.661,537.8330000000002,0.0
51879.0,STARLINK-3572,PAYLOAD,2022-12-08 13:26:32,15.08849882,0.0002269,53.2182,288.3549,31.5415,328.5713,0.0001676999999999,2.382e-05,0.0,0 STARLINK-3572,1 51879U 22022AD  22342.56009880  .00002382  00000-0  16770-3 0  9996,2 51879  53.2182 288.3549 0002269  31.5415 328.5713 15.08849882 44033,6917.85,95.437,541.285,538.146,0.0
51879.0,STARLINK-3572,PAYLOAD,2022-12-09 05:20:23,15.0884697,0.0002255,53.2178,285.3809,31.7,328.4127,0.00025245,3.733e-05,0.0,0 STARLINK-3572,1 51879U 22022AD  22343.22249772  .00003733  00000-0  25245-3 0  9994,2 51879  53.2178 285.3809 0002255  31.7000 328.4127 15.08846970 44135,6917.859,95.437,541.284,538.164,0.0
51879.0,STARLINK-3572,PAYLOAD,2022-12-10 05:11:13,15.08827633,0.0002744,53.2183,280.9223,30.7685,329.3468,-7.8871e-05,-1.543e-05,0.0,0 STARLINK-3572,1 51879U 22022AD  22344.21613054 -.00001543  00000-0 -78871-4 0  9995,2 51879  53.2183 280.9223 0002744  30.7685 329.3468 15.08827633 44282,6917.918000000002,95.438,541.681,537.885,0.0
51879.0,STARLINK-3572,PAYLOAD,2022-12-10 06:46:36,15.08829159,0.0002623,53.2179,280.624,32.457,327.6583,-7.0553e-05,-1.411e-05,0.0,0 STARLINK-3572,1 51879U 22022AD  22344.28237018 -.00001411  00000-0 -70553-4 0  9997,2 51879  53.2179 280.6240 0002623  32.4570 327.6583 15.08829159 44296,6917.9140000000025,95.438,541.5930000000002,537.964,0.0
51879.0,STARLINK-3572,PAYLOAD,2022-12-11 05:01:59,15.08842676,0.0002331,53.2184,276.4613,31.6787,328.4345,0.0001006,1.313e-05,0.0,0 STARLINK-3572,1 51879U 22022AD  22345.20971720  .00001313  00000-0  10060-3 0  9990,2 51879  53.2184 276.4613 0002331  31.6787 328.4345 15.08842676 44436,6917.871999999999,95.437,541.35,538.125,0.0
51879.0,STARLINK-3572,PAYLOAD,2022-12-12 01:42:00,15.08834869,0.0002681,53.2172,272.6004,26.5101,333.6028,3.2177e-05,2.24e-06,0.0,0 STARLINK-3572,1 51879U 22022AD  22346.07084173  .00000224  00000-0  32177-4 0  9997,2 51879  53.2172 272.6004 0002681  26.5101 333.6028 15.08834869 44561,6917.896,95.438,541.616,537.906,0.0
51879.0,STARLINK-3572,PAYLOAD,2022-12-13 04:43:33,15.08848441,0.0002484,53.2177,267.54,31.3614,328.7526,0.00016479,2.336e-05,0.0,0 STARLINK-3572,1 51879U 22022AD  22347.19691397  .00002336  00000-0  16479-3 0  9995,2 51879  53.2177 267.5400 0002484  31.3614 328.7526 15.08848441 44731,6917.855,95.437,541.438,538.001,0.0
51879.0,STARLINK-3572,PAYLOAD,2022-12-14 04:34:20,15.08841832,0.0002498,53.2169,263.0797,30.6576,329.4562,1.9492e-05,2.2e-07,0.0,0 STARLINK-3572,1 51879U 22022AD  22348.19051322  .00000022  00000-0  19492-4 0  9993,2 51879  53.2169 263.0797 0002498  30.6576 329.4562 15.08841832 44887,6917.875,95.437,541.4680000000002,538.012,0.0
51879.0,STARLINK-3572,PAYLOAD,2022-12-14 10:55:52,15.08842615,0.0002152,53.2168,261.8905,31.9533,328.159,0.00011258,1.504e-05,0.0,0 STARLINK-3572,1 51879U 22022AD  22348.45547211  .00001504  00000-0  11258-3 0  9996,2 51879  53.2168 261.8905 0002152  31.9533 328.1590 15.08842615 44929,6917.871999999999,95.437,541.226,538.249,0.0
51879.0,STARLINK-3572,PAYLOAD,2022-12-15 06:00:30,15.08834982,0.0002479,53.2167,258.3227,30.6846,329.4291,-2.2952e-05,-6.54e-06,0.0,0 STARLINK-3572,1 51879U 22022AD  22349.25035703 -.00000654  00000-0 -22952-4 0  9994,2 51879  53.2167 258.3227 0002479  30.6846 329.4291 15.08834982 45045,6917.896,95.438,541.476,538.0459999999998,0.0
51879.0,STARLINK-3572,PAYLOAD,2022-12-15 10:46:39,15.08843665,0.0002435,53.2177,257.4304,31.0352,329.0784,7.5594e-05,9.15e-06,0.0,0 STARLINK-3572,1 51879U 22022AD  22349.44907346  .00000915  00000-0  75594-4 0  9994,2 51879  53.2177 257.4304 0002435  31.0352 329.0784 15.08843665 45075,6917.869000000002,95.437,541.419,538.05,0.0
51879.0,STARLINK-3572,PAYLOAD,2022-12-15 23:29:44,15.08856272,0.0002458,53.2166,255.0518,29.6213,330.4918,0.00032529,4.895e-05,0.0,0 STARLINK-3572,1 51879U 22022AD  22349.97898369  .00004895  00000-0  32529-3 0  9997,2 51879  53.2166 255.0518 0002458  29.6213 330.4918 15.08856272 45150,6917.831,95.437,541.396,537.995,0.0
51879.0,STARLINK-3572,PAYLOAD,2022-12-16 10:37:27,15.08826452,0.0002208,53.2164,252.9703,32.76,327.3528,-0.00033741,-5.652e-05,0.0,0 STARLINK-3572,1 51879U 22022AD  22350.44267418 -.00005652  00000-0 -33741-3 0  9997,2 51879  53.2164 252.9703 0002208  32.7600 327.3528 15.08826452 45225,6917.922,95.438,541.314,538.259,0.0
51879.0,STARLINK-3572,PAYLOAD,2022-12-16 18:34:22,15.08820061,0.0002664,53.2161,251.4843,44.6982,315.4225,-0.00073702,-0.00011993,0.0,0 STARLINK-3572,1 51879U 22022AD  22350.77387682 -.00011993  00000-0 -73702-3 0  9995,2 51879  53.2161 251.4843 0002664  44.6982 315.4225 15.08820061 45279,6917.941,95.439,541.649,537.9630000000002,0.0
51879.0,STARLINK-3572,PAYLOAD,2022-12-17 10:28:15,15.08817945,0.0002003,53.2159,248.5099,39.7649,320.349,0.0012615,0.00019834,0.0,0 STARLINK-3572,1 51879U 22022AD  22351.43629335  .00019834  00000-0  12615-2 0  9998,2 51879  53.2159 248.5099 0002003  39.7649 320.3490 15.08817945 45375,6917.948,95.439,541.198,538.427,0.0
51879.0,STARLINK-3572,PAYLOAD,2022-12-17 20:00:34,15.08832619,0.0002003,53.2158,246.7256,40.8559,319.2583,0.0012204,0.00019184,0.0,0 STARLINK-3572,1 51879U 22022AD  22351.83373714  .00019184  00000-0  12204-2 0  9991,2 51879  53.2158 246.7256 0002003  40.8559 319.2583 15.08832619 45434,6917.903,95.438,541.154,538.382,0.0
51879.0,STARLINK-3572,PAYLOAD,2022-12-18 00:46:44,15.08839306,0.0002059,53.2158,245.8338,40.9309,319.1837,0.001181,0.00018557,0.0,0 STARLINK-3572,1 51879U 22022AD  22352.03245756  .00018557  00000-0  11810-2 0  9993,2 51879  53.2158 245.8338 0002059  40.9309 319.1837 15.08839306 45464,6917.8830000000025,95.438,541.172,538.323,0.0
51879.0,STARLINK-3572,PAYLOAD,2022-12-18 10:19:03,15.08842669,0.0002078,53.216,244.0495,42.1557,317.9595,0.00085999,0.00013426,0.0,0 STARLINK-3572,1 51879U 22022AD  22352.42989889  .00013426  00000-0  85999-3 0  9998,2 51879  53.2160 244.0495 0002078  42.1557 317.9595 15.08842669 45522,6917.871999999999,95.437,541.175,538.3,0.0
